GLOBALSTAR M062         
1 26082U 00008B   24135.41274145 -.00000055  00000+0  30701-3 0  9993
2 26082  51.9828 188.4295 0006788 340.4533  32.9192 12.43435360447014
GLOBALSTAR M060         
1 26083U 00008C   24135.63572505  .00000043  00000+0  13283-2 0  9990
2 26083  52.0015  91.3937 0003660  33.2996 137.9424 12.17632966103819
GLOBALSTAR M064         
1 26084U 00008D   24135.84563167 -.00000069  00000+0  19572-3 0  9995
2 26084  52.0008 184.1724 0001156   7.7284 352.3567 11.88519067119733
GLOBALSTAR M065         
1 31571U 07020A   24135.93010497 -.00000018  00000+0  48167-3 0  9992
2 31571  51.9914 358.3944 0010529 142.9457 320.4807 12.61970305783122
GLOBALSTAR M069         
1 31573U 07020C   24135.75410682 -.00000032  00000+0  39984-3 0  9997
2 31573  51.9958 314.8000 0001051 103.3386 269.5893 12.62272791784230
GLOBALSTAR M071         
1 31576U 07020F   24135.78058295 -.00000042  00000+0  34204-3 0  9992
2 31576  52.0075 319.8587 0000839  70.4723 302.7057 12.62265781445420
